{"type":"Topology","arcs":[[[647459,614455],[-2105,-2044],[-306,-3676],[-1705,-1836],[-6261,-4028],[-1893,-3385],[-1884,-12],[-3337,-3357],[-3143,-730],[-1718,-3013],[-3080,-1148],[-1263,1282],[-2106,16222],[228,4132],[-1403,6125],[-1511,2598],[-2753,10772],[-3182,4392],[-1444,4567],[6,6236],[-1755,7600],[-2558,3341],[-1095,5758],[-5468,15808],[-1567,654],[929,6944],[63,1161],[-192,-448],[-1402,-8419],[-2368,-679],[1144,-7197],[3431,-12525],[1196,-2357],[203,-6452],[3260,-5471],[775,-5145],[891,-13157],[3162,-4696],[2492,-14248],[4638,-5253],[1339,-3672],[4051,-7343],[359,-6964],[3168,-6163],[3973,2337],[2079,-518],[2333,2467],[4260,486],[3254,1560],[1895,2619],[1285,-882],[-1194,-13842],[-4101,-14045],[-832,-4707],[-2983,-9659],[-5345,-11650],[-4773,-6246],[-6536,-13621],[-1242,-4161],[-1492,-1471],[-4927,-15797],[-1118,-6829],[1814,-5767],[-468,-9018],[1333,-8474],[1888,-3167],[326,-12510],[-61,-16351],[-1984,-5543],[-2112,-3096],[-5111,-4419],[-1956,-4484],[-4423,-7458],[-694,-3410],[1582,-7182],[855,-7560],[-1165,-9093],[-5024,-4146],[-1542,-2209],[261,-6942],[-1668,-10211],[-2640,-4359],[-2907,-9173],[-6745,-12006],[-3975,-4065],[-4451,-2359],[-3449,1059],[-3722,-484],[-1269,-1749],[-5983,-2193],[-2295,3717],[-2585,6607],[1035,1782],[-111,5241],[-1482,4168],[-3416,13837],[-3072,7092],[-1038,6156],[-363,7403],[-932,4790],[67,8639],[-2987,10289],[-2756,11465],[-1896,5329],[-91,4336],[22,8166],[603,1140],[1618,12654],[2407,5286],[1196,8446],[-2358,11560],[1055,3908],[-2989,13120],[2127,1312],[-2374,612],[-542,4346],[-2467,6269],[-3808,8053],[-2606,10429],[1321,2058],[817,7970],[583,7331],[209,5792],[-3667,8328],[-6887,-2677],[-1358,2055],[-2019,7946],[-2042,2218],[-3943,-243],[-3010,-878],[-1210,-734],[-8858,-7645],[-3090,1879],[76,229],[188,14],[-2828,572],[-4243,-810],[-5501,-4253],[-4409,4052],[-3178,5894],[-3420,4776],[-2717,2764],[-1098,2710],[-1144,6871],[-1132,4621],[-3730,6274],[-1274,4515],[-3361,3636],[-143,4087],[558,3014],[-1683,6069],[1758,6901],[1268,9837],[-17,5620],[-1193,4844],[845,4989],[-2327,3332],[125,3540],[2202,9664],[3254,8359],[1736,9823],[2328,2774],[1741,6793],[4219,2696],[2621,3934],[2276,6017],[-393,7579],[1564,6613],[2624,4620],[3889,3427],[2712,10467],[4430,-3597],[5862,-330],[6299,4588],[3359,3567],[7005,2170],[3935,-1264],[3586,2356],[5805,-856],[3088,2323],[2453,-2656],[54,-5717],[1471,-3727],[-2555,-5152],[-115,-2858],[3738,-3849],[2153,-1864],[2788,324],[5259,-3017],[888,-4231],[1741,-2260],[3406,-1054],[4409,-4558],[2158,1140],[1215,3401],[-624,4257],[1930,4395],[2819,2057],[4041,-1835],[544,-2333],[3882,-1140],[1296,-2080],[5826,-1597],[5067,-3155],[3675,3615],[2219,749],[2522,-2851],[5823,1324],[776,1511],[1753,8636],[2410,8904],[-232,7417],[-987,3921],[-2600,1080],[-2518,-3471],[-2500,-842],[-4006,4408],[-4621,-3712],[-4320,5029],[-2180,-58],[-1851,6792],[919,3967],[-2501,3345],[1736,5374],[4308,16],[2988,2341],[-118,2411],[5369,-692],[2921,3583],[2985,1660],[7418,-1930],[1272,-2421],[5198,-1947],[5234,212],[3458,3204],[-59,6579],[-4196,4382],[-3503,5002],[-3627,2577],[2230,13575],[-6631,-2691],[-2715,-2503],[422,-2630],[1308,-3658],[-4340,-4096],[-986,4091],[-2909,1764],[3017,3989],[-3103,-72],[-1396,3601],[-3272,-903],[-3029,-7444],[-2946,-5556],[-167,-3189],[-3057,-7341],[1471,-2875],[2128,-5732],[-7615,-1425],[-4598,1071],[-1998,-3969],[-2875,1565],[1732,-10568],[-498,-10868],[-4141,1763],[-2231,11106],[-2162,4038],[-1676,3316],[-155,9127],[-2291,3249],[-2361,2674],[-229,238],[-4566,4138],[-2273,3458],[-746,4749],[-3546,2511],[394,408],[-4015,-816],[339,-7042],[3244,-3759],[1239,-5081],[5562,-7226],[5395,-4495],[-2852,-1136],[-1106,-3447],[1791,-4964],[-2716,-1376],[-1401,7092],[-5442,7176],[-3063,1348],[-5340,8450],[-1835,6244],[-3561,2318],[-3535,-3775],[-152,-96],[-169,-108],[-3505,-3799],[-5731,3000],[-2780,-3906],[443,-2788],[102,-2806],[-3237,-3784],[-2916,-1299],[-3778,-8885],[1468,-4383],[-6425,-11422],[-6265,-337],[-4649,-3052],[-1255,4414],[-2538,1295],[-3310,-334],[-881,8013],[-1553,1260],[2273,13244],[-337,5252],[-1273,5968],[4270,4538],[1211,-979],[7608,-1031],[7581,-48],[859,901],[1163,12917],[-2647,7098],[-3166,3786],[-3204,738],[-1135,4131],[4137,1734],[4983,-1149],[831,4301],[2708,-525],[3914,4042],[928,4269],[2626,2062],[2292,1617],[2434,50],[1256,8201],[3844,3441],[3153,-719],[4723,3189],[-631,6151],[-1495,4013],[1351,8708],[5329,1943],[-2215,-15112],[4611,-5076],[3266,3012],[4676,-4250],[-125,813],[-6,458],[5485,1959],[5937,3156],[3558,-2183],[3598,4767],[162,-44],[772,-86],[-527,4644],[70,4342],[4120,5189],[3037,-4340],[1874,5183],[-2300,7634],[5597,2555],[6953,-892],[2596,1985],[-3193,4076],[-11322,-3287],[-6349,3634],[472,5733],[-1395,5943],[5958,7335],[5831,9122],[-3312,1878],[-7194,-2288],[-279,-5926],[-1951,-2949],[-7965,-5976],[-2124,-7230],[334,-5041],[4776,-5436],[-1903,-3733],[-4537,-3889],[-345,-7871],[-1475,-4872],[-3374,-350],[-1223,-3654],[-2835,-1044],[-5200,15970],[-169,5290],[-4917,-521],[-4034,-4613],[-3226,-698],[-3605,2877],[-1598,4050],[312,7738],[-878,6575],[1682,3458],[11596,8953],[6810,7571],[2625,7839],[13880,15077],[533,1837],[17019,7069],[8825,2243],[9297,-4707],[-206,-2828],[13856,-3410],[14190,-8517],[618,-5112],[-7754,-4389],[-8011,1909],[-3075,-5761],[1286,-4816],[4154,-3210],[1439,6739],[7986,-3430],[163,5882],[6650,5310],[5241,-1640],[-875,5874],[738,7457],[5122,-398],[2218,-3635],[-4864,-2140],[2907,-3597],[4787,1106],[460,3106],[12987,5809],[3938,-2103],[8775,1882],[10803,7475],[6515,-1015],[14286,-7644],[107,3564],[-4107,4187],[-408,9153],[3755,2307],[2138,5687],[10481,124],[-2500,-6588],[3262,-594],[21502,6012],[-677,6223],[16689,1877],[167,4541],[9815,5236],[18595,1958],[22313,7166],[8656,-2629],[8575,27],[7656,-4996],[-716,-3244],[-9311,-7349],[5238,-1777],[17508,-687],[3612,-3518],[9472,-140],[402,3330],[12320,-296],[4643,-6718],[-2925,-1309],[3898,-5581],[5000,-1259],[2779,5728],[4279,-2975],[8924,-112],[6610,1964],[-261,4585],[6834,1294],[12591,-2410],[8076,-796],[8354,-7662],[9406,1504],[9599,-1756],[1338,-5795],[19411,-1644],[7749,-4111],[3848,1494],[-1412,6120],[7751,-1635],[7862,210],[10812,-5052],[0,-22563],[-4112,-2675],[519,-6231],[2400,-4805],[-6165,-577],[-12485,-6443],[-1288,-2347],[-6695,-5731],[-2100,3047],[-11506,-2865],[-3623,-332],[-5056,-11316],[2276,-4145],[1545,-6482],[-3474,-823],[-988,-4216],[1045,-3490],[-5642,-3244],[-491,-4658],[-3580,-2921],[-1404,-6131],[-3766,-4841],[-1802,11737],[-1511,13494],[1188,7759],[4077,6361],[4407,3599],[8241,11501],[4740,2862],[-1946,5039],[-6230,-5981],[-4694,6735],[-4465,-711],[-8823,-11325],[2427,-2726],[-6346,-2426],[-3879,3371],[-5120,1419],[-5912,-2892],[-2972,933],[-9034,-348],[-3241,-2134],[-12038,-16480],[-6748,-6891],[4264,-1857],[1475,-6234],[3701,1186],[2907,3067],[4708,-6298],[231,-5793],[-2216,-5452],[-473,-9427],[-963,-6179],[-4400,-8449],[-2503,-7138],[-5030,-8324],[-2066,-4885],[-5475,-4775],[-3994,2914],[-2875,-5186],[-2586,-3401],[-132,-4926],[-5946,-6196],[-482,-3307],[2722,-3368],[2668,-7771],[630,-7646],[-966,-4412],[-4164,-1309],[-3352,-3480],[-603,4630],[1184,3541],[-1390,6350],[1158,5248],[-3291,-297],[-1060,4762],[815,5588],[-2775,2751],[-5631,-3676],[-2270,1572],[2104,5202],[-3057,2071],[-1932,-3862],[-2466,-1892],[-1886,-4242],[-3132,-183],[639,-5480],[2570,-810],[1416,-5290],[3612,4086],[3285,-5038],[-2619,-2083],[-4928,-9139],[2738,-3953],[3332,-11256],[-136,-2957],[1461,-5426],[-2445,-2067],[2629,-3827],[-950,-8800],[-1399,-439],[-2277,-6876],[-2054,-8676],[-2720,-5824],[-5616,-8070],[-188,-1347],[-6124,-2333],[-696,-167],[-1357,-1533],[-134,-290],[-2479,-2413],[-1784,420],[-4863,-4679],[-730,2552],[-4461,1227],[-978,-1069],[-3603,-3154],[-1921,-5885],[-1006,-5605],[4329,-11917],[2359,-3266],[2200,-5491],[1339,-8766],[-291,-12282],[-2575,-4555],[-2806,-3087],[-1914,-4363],[-4872,-4836],[581,7292],[-1671,1981],[-3537,2895],[-608,4569],[-3362,5661],[-2390,145],[276,4134],[-2625,-454],[-79,-6812],[-2289,-10665],[-12,-3375],[1564,-2419],[1543,-6025],[852,-6294],[2533,-1791],[1675,-3589],[2448,-4133],[1204,-3887],[66,-11046],[2358,-8368],[-1649,-179],[-2688,2339],[-3976,5932],[-1612,6228],[-1656,14265],[-1108,3827],[-3170,7133],[-947,454],[1290,10182],[-660,2797],[768,5277],[-460,9047],[-2121,9777],[-535,9670],[-1226,3024],[-3931,-5145],[-1038,-2572],[-3264,2327],[1040,8313],[-1641,10783],[-2767,3652],[-1883,4131],[-2339,11555],[-3676,-5649],[-3076,1592],[-5418,-3413],[-348,-4613],[-1933,-4498],[-4191,-4575],[-1852,-4798],[-4846,-6893],[-280,-3091],[-2834,-1704],[-722,-2914],[-1903,-274],[-667,-3668],[803,-9868],[-1345,-7908],[-56,-9600],[-1243,-96],[-1142,-5977],[-2186,-2176],[-1875,-4682],[-1530,1896],[-1784,6020],[61,2708],[-1730,8294],[-1464,4009],[-2262,14042],[-2517,8985],[-2246,21760],[406,7411],[-2218,222],[-2752,-2402],[-2493,2050],[-3107,6350],[3246,2166],[-4268,3556],[-1321,3845],[-1380,-267],[-1380,5446],[-2064,4720],[-4915,-2255],[-8531,106],[-488,-578],[-11327,3972],[-979,6418],[-1739,1699],[-4056,-3708],[-3306,973],[-3416,5133],[-3325,2966],[-1748,7425],[-1852,4548],[-3990,-1423],[-1577,118],[1288,-8296],[1289,-5266],[2999,-4610],[126,-4136],[2147,-7615],[552,6868],[1500,-455],[-765,-7462],[835,-1850],[6458,-1205],[6075,11440],[604,-2373],[251,-3869],[2310,-6087],[3773,-1609],[3394,-8202],[-3682,-10446],[-1701,-937],[-140,-7070],[-3212,-2476],[-1069,-3668],[-2198,-619],[-1153,-4634],[-2766,-193],[-2730,-2058]],[[301889,586878],[-1742,-2578],[980,-4362],[-1441,-4850],[1184,-4281],[1761,3648],[-1158,7250],[5106,2972],[2232,-278],[2656,-5529],[4513,923],[1098,-2158],[2781,-919],[2714,3259],[3253,495],[521,-3305],[4785,-4698],[-24,-4428],[2176,-247],[3864,-5781],[406,-2926],[3584,-5420],[-13,-3163],[625,2561],[2862,-1137],[3072,1111],[1882,-3626],[858,2438],[2633,-2058],[3463,-7857],[1202,186],[1558,-11308],[1950,-2714],[162,-2863],[-3845,-7191],[-1846,-8651],[2860,2716],[1430,-5187],[3922,1070],[2434,6294],[3621,-244],[6000,-5566],[953,-4548],[3810,404],[4496,-2715],[3760,431],[4135,-4932],[3615,-6884],[4514,-1251],[872,-2519],[1195,-9920],[-81,-3936],[-1406,-7254],[-2938,-7222],[-1498,-1938],[-3617,-11660],[-1523,354],[-837,-4641],[580,-13113],[-930,-8364],[-1457,-7628],[111,-3676],[-3026,-9381],[-926,-6789],[-2555,-4970],[-7208,-625],[-2183,-3629],[-4011,-3174],[-2804,-4386],[-1857,-4715],[-25,-7952],[-682,-7947],[-2629,-4539],[-1537,-6122],[-2383,354],[-2264,-5874],[-1889,-10106],[-1995,-3482],[-1152,-3677],[-3103,-3183],[-3376,143],[-2925,2625],[-1829,-144],[-1586,3255],[553,8301],[-961,-6867],[732,-5877],[2722,-2909],[107,-5506],[1647,-4074],[-2430,-7112],[-6337,-4336],[-6218,-466],[-912,-11360],[-3828,-1494],[-3778,1552],[206,-6276],[1774,-2672],[-2398,-6892],[-986,-7939],[-3619,-1437],[-1727,-6269],[2184,-3806],[2886,-1953],[-200,-3435],[-3397,-3956],[-2085,-7094],[-3211,-3015],[-821,-3274],[2199,-8102],[-2215,871],[-4317,-3245],[-558,-5822],[-3274,847],[-5111,5721],[1379,3447],[-1050,4088],[-3330,3746],[2114,4072],[-20,7944],[-872,5148],[1397,4194],[-4180,2097],[5852,6491],[2462,6034],[-1670,1543],[1333,10759],[-3280,6816],[2054,10912],[-1209,8791],[1238,3063],[1645,9110],[1111,2821],[2143,14038],[-603,13420],[982,3922],[-565,4167],[925,3161],[2058,18467],[-327,12189],[1321,9011],[-168,9725],[-751,8409],[-3094,6057],[-2598,3378],[-3771,3199],[-3553,4269],[-3291,7368],[292,3560],[-2879,10669],[-1147,2164],[-3136,15388],[-3745,11336],[-1948,2116],[-1310,11293],[2663,5383],[-1238,7555],[-367,5749],[2136,6181],[125,4556],[3413,3864],[674,4905],[2631,3296],[1168,16717],[-307,4173],[-1503,4176],[-3293,10185],[-3562,-4081],[816,-3582],[-2140,-2575],[-2450,5286],[-3200,-386],[-2105,5558],[-2838,3523],[-2683,1473],[-332,6682],[-2013,3896],[-2412,7149],[-1325,2420],[-1938,-1240],[-4398,3184],[-2919,1089],[-3025,3571],[-4669,8689],[-2735,2097],[-1566,-2551],[-2907,-1860],[-3455,1815],[-2799,3272],[-5793,3835],[-2776,4159],[-4429,2323],[-1308,2898],[-2850,2771],[-2030,6201],[1279,6367],[-1619,6549],[-7172,14790],[-2809,3069],[514,3331],[-3550,5862],[-4678,9773],[-2635,10223],[177,2224],[-4980,3568],[527,-8990],[4942,-10451],[380,-3447],[3234,-6444],[772,-5288],[1707,-5769],[3490,-7538],[-2616,719],[-4750,7116],[-846,7916],[-5745,5786],[1102,6960],[-4514,7664],[-1079,6037],[-2961,9963],[-943,4391],[-2885,4159],[-5486,2617],[-423,3485],[-3455,7228],[-1638,8684],[-3428,6159],[-510,5494],[-1353,3632],[842,5145],[-1309,8232],[1086,5064],[610,10861],[-396,6729],[-1558,9393],[6641,-2099],[-1519,5659],[-5538,5918],[-762,2296],[-3744,641],[-3621,3580],[-1804,5806],[691,4028],[-6185,4989],[1237,8300],[-375,4169],[-525,-4968],[-1003,-1476],[-954,5567],[-7076,8275],[-1659,5986],[-4996,2108],[-2002,-1912],[-10095,8536],[-9968,1649],[-5816,2681],[-2708,3034],[-4085,-872],[408,-3951],[-3430,-960],[-6405,-4682],[-34,9025],[-6494,-8018],[2094,-2912],[-8724,-10098],[-5002,-5237],[-10551,-6090],[-231,3343],[7984,5584],[4654,5259],[233,4724],[-4330,279],[-3557,3350],[-3868,-2530],[-1353,9024],[-4623,-2141],[-4019,4232],[-2014,7270],[4638,8135],[2917,-975],[7168,4455],[-426,4379],[-5209,-1180],[-9266,1202],[-5404,6193],[9484,5170],[2719,-2715],[5219,-174],[2645,3556],[-7934,3023],[-7389,7085],[5773,2946],[6726,8039],[14160,5687],[13440,-4994],[7432,281],[11311,-2836],[5497,620],[6156,-2682],[14239,-4228],[2043,3174],[5493,-195],[7402,4086],[4242,-2482],[5091,3036],[17156,-3335],[7965,-3558],[10226,-2209],[-2814,-4240],[8310,-1376],[6646,1685],[4803,3650],[5970,1781],[5474,-5120],[7330,-1948],[8716,768],[3198,3610],[4487,-4123],[5552,4642],[-1720,5255],[-5134,2401],[-796,8076],[3346,3631],[6257,-3697],[3846,-6245],[-3297,-2675],[13082,-5198],[-429,-6026],[4610,-1439],[3193,9886],[-335,3534],[8025,-889],[3583,-3290],[-3400,-3880],[3562,-5685],[-3809,-5026],[-5103,-2352],[-2677,2063],[-5137,-6813],[31,-3046],[-3813,-4706],[-7436,-2896],[-7585,-12612],[-2014,-7861],[201,-6050],[3987,-846],[2858,-10068],[4603,1241],[4566,-2150],[3854,-4580],[6944,-4440],[6899,-789],[1211,-7670],[-331,-4934],[1665,-3845],[5069,-6456],[3735,6216],[-3260,14089],[4929,3105],[3446,5017],[215,6188],[-1622,4826],[-3773,3823],[3343,7836],[-1555,4283],[-738,7614],[2124,2680],[7452,-2241],[2944,1560],[6131,-7463],[4951,-2703],[-115,-7767],[5867,-6501],[5454,5170],[3075,6669],[3650,-8126],[5143,-10643],[-502,-3574],[4401,-6516],[7016,-3969],[710,-4164],[3752,-3663],[286,-6189],[-3558,-3919],[-4262,-936],[-4361,-5995],[-17820,-246],[-2435,-4975],[-4325,-2993],[-2712,-5743],[-3784,-5970],[-4759,-3378],[-4800,-6948],[3197,2427],[1107,3371],[7333,5891],[4257,7158],[7802,5405],[3728,-123],[1618,-3695],[-2959,-8350],[2160,-4960],[3468,-2813],[3715,669],[1866,-3645],[-6882,-4316],[-5491,-5333],[-1004,4648],[4585,5119],[-7433,-499],[50,-1638],[-8533,-6446],[-2410,-8269],[1782,-4057],[-6785,-2080],[-3832,-3791],[-561,-7033],[-2676,-1697],[990,-3396],[-3412,-3513],[1038,-7124],[-1634,-3624],[1958,-2196],[-9728,-14471],[-4370,-5885],[-1865,-7140],[753,-6227],[2015,-7535],[-350,-1758],[1691,-9290],[-905,-7129],[-2030,-69],[-3732,10028],[-1117,4530],[533,6001],[-2897,5983],[-4609,-289],[-2510,3556],[-4258,-1159],[-3097,710],[-1898,-1435],[-1425,-5671],[-1804,-293],[-3173,4063],[-1021,-1609],[-3984,1228],[-3315,-2301],[-2681,-4207],[-3619,-2858],[-1106,-6781],[1134,-5796],[-1448,-9054],[-528,-10172],[611,-5881],[1434,-5697],[3612,-10718],[1776,-311],[1765,-3030],[7146,3117],[3429,3667],[1073,9548],[6171,3494],[3632,-1119],[-113,-3092],[-1674,-4510],[-818,-9542],[-1483,152],[-49,-10600],[-1613,-4275],[1849,-932],[1695,1042],[3504,-729],[1591,1265],[4229,-1038],[3067,-4780],[-1139,-9637],[157,-5235],[-992,-6405],[628,-2206],[2995,-7724],[888,-3141],[2470,-1446],[4938,4709],[4151,-2083],[1968,-3330],[1351,-221],[3468,4785],[-87,4298],[2295,5262],[4253,1072],[4442,6477],[1096,-3215]],[[128983,843137],[4416,-6514],[-2239,-923],[-2177,7437]],[[67830,628074],[-1299,4251],[603,3030],[2854,-4329],[-2158,-2952]],[[492589,815964],[-1737,-1340],[-4986,3488],[3077,3145],[-363,3902],[3294,2961],[-8366,16552],[1663,9409],[9890,-4292],[-2430,-6773],[2770,-4309],[6151,-15000],[3050,-1228],[-272,-3842],[-3761,-7628],[-10027,-752],[2047,5707]],[[479948,835951],[3026,722],[1830,-4132],[-2077,-2371],[530,-6692],[-1483,-4254],[-6256,-3479],[-3174,3179],[1824,5536],[-1935,6790],[3813,408],[968,4606],[2934,-313]],[[649761,733692],[-127,9251],[-3152,8352],[5490,2837],[-2399,6914],[-3757,-1791],[285,5645],[-2090,866],[-2815,7388],[1625,6713],[3098,235],[1678,4569],[-609,4395],[-4827,897],[-5405,-4454],[-4745,-4237],[-2142,-6805],[1324,-1315],[649,-6668],[3082,-6860],[3342,-7262],[-2520,-12379],[589,-4424],[2916,-1501],[2744,-3829],[2977,-696],[5075,1906],[-286,2253]],[[847005,467012],[711,1698],[4005,1085],[820,-1474],[-5130,-4590],[-1780,-3668],[-2328,1047],[1242,3602],[1133,872],[1327,1428]],[[836135,648863],[-2601,3051],[240,3222],[2449,7627],[2468,-341],[-1759,-11564],[-797,-1995]],[[599489,710751],[147,403],[-79,-93],[-68,-310]],[[722172,575071],[2025,-2571],[1838,-5387],[1392,-6586],[-657,-4973],[-2537,-2571],[-1747,1004],[-842,8250],[528,12834]],[[560,915739],[12370,-7273],[2493,-3312],[7367,-988],[4455,-4208],[-1318,-3341],[-4292,-1131],[-2216,-6497],[-7902,4110],[-665,2651],[-6158,80],[-4694,-2406],[0,1410],[0,1410],[0,1411],[0,1410],[0,1410],[0,1410],[0,1410],[0,1411],[0,1410],[0,1410],[0,1410],[0,1410],[0,1410],[0,1411],[0,1410],[560,1162]],[[688236,957783],[-17803,-5317],[-12201,-11225],[-6447,3417],[6791,8206],[4982,2713],[11362,2200],[12676,4443],[640,-4437]],[[653666,940905],[3082,-617],[-3144,-7293],[5134,-7757],[-9510,1299],[-5305,3900],[5391,10382],[4352,86]],[[771317,980372],[6630,-2196],[-1727,-5433],[-17691,3809],[12788,3820]],[[785790,975162],[6281,-2507],[-3963,-3230],[-9542,2425],[7224,3312]],[[889023,955428],[14463,-1402],[-3432,-3116],[-13668,-2237],[-5814,3333],[1375,3887],[7076,-465]],[[896558,831929],[1285,-6326],[-190,-6984],[3102,-15974],[-3242,-648],[-1522,-8417],[58,-5976],[-2077,-1438],[976,9001],[-876,4245],[767,4719],[179,9526],[-1346,2960],[281,9237],[1952,622],[653,5453]],[[836392,625788],[2067,-1843],[1871,-6744],[-1067,-5416],[-2063,-4958],[1134,-6974],[-1658,-2729],[-3115,6976],[215,6894],[1222,14175],[1394,619]],[[825863,567160],[6155,14482],[438,-2313],[-2506,-3662],[-965,-3803],[-3122,-4704]],[[842029,570758],[-1578,2413],[1168,8088],[1623,-610],[-1126,-5281],[-87,-4610]],[[846040,583889],[987,171],[898,-6390],[-1313,-551],[-572,6770]],[[847887,590715],[-17,-7967],[-2608,8206],[2625,-239]],[[850016,572238],[871,-2744],[728,-9201],[-1393,-2964],[-1887,360],[153,-6519],[-3827,4264],[357,5716],[-2266,64],[-1333,4315],[1454,3150],[2198,-2488],[1786,4038],[3159,2009]],[[921987,493779],[1345,-2504],[-714,-3605],[-4762,-5296],[-2155,-82],[-3633,4295],[7245,699],[1995,3113],[679,3380]],[[891592,503498],[9734,-7003],[3581,-5749],[239,-3734],[5414,-4863],[-1897,-2342],[197,-3782],[2602,-4180],[1268,-5463],[3587,-5538],[-334,-1959],[-5515,1630],[-2978,6019],[-1843,5468],[-4232,2933],[-2489,-3647],[-687,-4383],[-1998,-2113],[-4641,1204],[-2893,5863],[-2352,2962],[-2322,10941],[-1370,2489],[-4943,4179],[-2178,462],[-4284,6259],[-1124,-4022],[-2501,6264],[-1161,8156],[-1869,4057],[3799,2861],[3749,-2221],[791,-3564],[-288,-4795],[2449,-6556],[1248,-69],[4547,8666],[1896,2061],[5509,-4984],[3289,-1507]],[[933215,480008],[-1705,-201],[-1561,4327],[597,2482],[2669,-6608]],[[558049,980900],[16564,-518],[-3388,-4362],[-13278,-29],[102,4909]],[[546629,978923],[10199,-4480],[-10438,-14692],[-6485,3775],[1541,2618],[-8741,5920],[4471,4404],[9453,2455]],[[980875,280701],[3298,1497],[-54,-4155],[-5272,-12035],[-2619,-1765],[-2061,-8921],[-2816,-4998],[-3624,-309],[-4585,2348],[1286,7112],[3256,5078],[3597,2828],[4432,6487],[637,3864],[3206,7354],[1319,-4385]],[[981303,317256],[2919,-1797],[1339,-6124],[-222,-3063],[3205,-672],[645,-3960],[3410,-1992],[3334,1721],[-1585,-8356],[-1550,353],[-3958,-12284],[-1869,-2290],[-1874,1851],[1465,3848],[-426,3857],[-2986,2553],[1842,4171],[918,5650],[-1336,7799],[-3695,7176],[424,1559]],[[804524,530216],[3642,-2939],[839,5291],[1349,2409],[3658,2025],[2831,7994],[2675,1769],[315,0],[1055,859],[2708,8486],[2220,894],[5106,-9083],[-2630,-1566],[-1697,-3791],[-1134,-3334],[2501,-7341],[-561,-2013],[3112,-5683],[-3444,-1454],[-507,-8646],[-2800,-4050],[30,-4758],[-1692,-7463],[-3508,-3311],[-437,3890],[-2806,1788],[-3447,-788],[-1283,1519],[-4418,762],[-593,8793],[-2385,5208],[-600,4901],[365,6569],[1536,3063]],[[826802,542555],[655,98],[-655,-98]],[[637606,446906],[1109,-3688],[1514,-13329],[-1810,-5014],[-981,-9464],[-4360,-26315],[-2030,-13374],[-1247,-2090],[-4482,-2265],[-2999,3153],[-966,3675],[96,4772],[-1266,8529],[2703,9620],[581,5479],[-1135,6569],[-169,5168],[1380,6766],[5154,2901],[4111,6735],[511,3367],[2225,3992],[287,4661],[1774,152]],[[899511,772718],[3547,-2031],[684,-3387],[-3828,-1701],[-2036,-5077],[-3847,3335],[-5641,-1103],[2667,4767],[1432,-89],[1781,13309],[5241,-8023]],[[864373,712138],[2228,-4371],[-1776,-8292],[-2079,-1303],[-1096,5256],[1239,3045],[-2945,3555],[3814,3663],[615,-1553]],[[873214,715905],[-3834,-8149],[-1698,3863],[1162,2765],[4370,1521]],[[892303,756906],[2079,-8805],[-214,-4224],[-2702,-6693],[112,-5460],[-947,-2876],[685,-4482],[-2986,-4425],[-1527,1850],[-2945,-3927],[-3624,1207],[-2690,-7168],[-1287,-48],[-1980,6982],[-8332,-4109],[-1073,2080],[4358,6327],[6253,1359],[1406,-1406],[2827,7138],[4505,2745],[3003,5325],[1798,7611],[-348,6538],[3321,1636],[308,2825]],[[543268,738744],[-2986,-8191],[-5739,5883],[8725,2308]],[[526755,754079],[-193,-9887],[-3179,229],[-634,8331],[3037,3169],[969,-1842]],[[768034,548664],[2930,-135],[2111,-6413],[3958,-5242],[2014,-5333],[1636,0],[3953,-8516],[2805,-1724],[672,-7875],[1777,-874],[855,-7762],[2024,31],[1798,-4183],[-557,-2924],[-77,-11885],[-3374,-1314],[-2139,4753],[-3594,5344],[-2664,5676],[-2029,5894],[-1500,7590],[-3192,6789],[-1652,8933],[-2399,2630],[-2033,7009],[-1456,1390],[-2639,5445],[-274,4997],[3046,-2301]],[[828450,470611],[2122,-2488],[-5402,-2013],[-629,3265],[3909,1236]],[[846913,524269],[-1282,-3023],[-11329,-123],[-933,-3719],[1817,-6763],[2367,2964],[3804,579],[-1062,-3415],[-2188,-2967],[3218,-12942],[-2668,-4257],[-830,4351],[-3282,2221],[-347,-10569],[-2598,673],[687,8011],[-1747,2863],[-586,4452],[1495,4812],[1249,8331],[105,4162],[1278,4218],[1785,1833],[5501,-2529],[5546,837]],[[798260,483921],[2559,-1483],[1063,-3027],[4857,-903],[863,2736],[5006,-2617],[709,-3606],[3545,-464],[879,-4449],[-4745,-23],[-5755,1496],[-5183,2779],[-2288,-328],[-3572,1778],[-311,2084],[-2878,1568],[1643,4998],[3608,-539]],[[860429,502023],[248,-2658],[-3958,-512],[-613,3170],[4323,0]],[[456824,900115],[5353,-4272],[-2586,-5999],[-11407,-5988],[-4290,860],[-4541,3742],[-2365,4730],[-4277,2656],[4994,5432],[3118,-3190],[7017,1685],[8984,344]],[[300643,622468],[-2836,2280],[423,8447],[2383,-1053],[2292,1128],[6304,-5814],[-695,-2862],[-2322,204],[-5549,-2330]],[[324658,622640],[311,0],[-311,0]],[[956117,401885],[2748,-3011],[4863,-7613],[-468,-1648],[-4255,4901],[-2888,7371]],[[995222,418445],[1076,-4084],[-2279,-1003],[-637,4574],[1840,513]],[[416797,999999],[23423,-5585],[1039,-5187],[15531,797],[11185,-2359],[-8263,-3807],[-13682,-2913],[984,-6369],[-5225,-3441],[2011,-6837],[-3715,-6192],[6512,-10453],[-5290,-2124],[-2933,-4845],[-300,-6628],[2140,-9180],[-5014,-433],[-2914,4006],[-9200,-881],[2616,-2984],[10164,-3414],[-9037,-6803],[-18932,-6197],[-2624,-5190],[-6327,-5157],[-8885,-2823],[-2993,-2451],[292,-6857],[-4452,-6665],[119,-4098],[-3361,-11115],[-5720,1584],[-9841,6191],[-1754,5504],[-5320,8121],[-2195,8715],[-3822,7252],[-693,4160],[2347,8500],[4972,743],[2082,6890],[-9762,2800],[8012,3169],[-12400,3352],[2378,7599],[-3795,3951],[-1937,6415],[-4763,5862],[-13674,3747],[-9410,-2135],[-7074,2092],[-4139,4860],[4199,1681],[-8456,5976],[17855,3618],[3265,5003],[-6121,2375],[22996,9680],[27378,1800],[15741,4896],[36782,1784]],[[590868,721175],[3588,-610],[-2952,-2819],[-636,3429]],[[272673,651990],[3299,-345],[8758,-7095],[2360,-3383],[2568,-1000],[4084,-5942],[-9618,-1292],[-783,4955],[-1776,4610],[-5174,3157],[-3659,788],[-59,5547]],[[808024,633720],[-1216,-7168],[-2588,-3052],[-2272,1827],[-22,4626],[1459,2907],[4639,860]],[[309296,202492],[-5122,254],[-1029,5331],[3067,6643],[3149,453],[1726,-5251],[7396,-7570],[-3236,-889],[-5951,1029]],[[295074,268794],[-1616,475],[884,8458],[1414,-581],[254,-5993],[-936,-2359]],[[146674,810303],[4765,-1865],[2331,-5117],[-130,-4790],[-5164,4734],[-4775,6858],[2973,180]],[[179024,964268],[-1859,-4334],[-8743,-2243],[-6238,1266],[7010,4976],[9830,335]],[[199188,956743],[7809,-1795],[-1060,-3192],[-8246,-730],[-13008,-3658],[-2605,3790],[-8745,1059],[5609,6717],[8009,-1358],[4569,-3763],[7668,2930]],[[181884,936784],[4911,2265],[11265,-2805],[2718,4781],[6402,-3116],[2349,-9704],[6632,-7248],[902,-4736],[-4475,-1241],[-7424,2036],[-7792,-2317],[-11616,-1531],[-1573,4038],[-7832,1323],[-3612,9990],[-2929,3044],[1372,4880],[10378,4833],[324,-4492]],[[167399,945540],[4918,883],[6997,-4765],[-13147,-7065],[-1221,-4073],[-7198,-2203],[-7089,5843],[5460,9395],[-2498,3342],[9392,1047],[4386,-2404]],[[306975,996841],[22490,-3312],[-11365,-6667],[-16400,-8775],[-10754,-1963],[2295,-4015],[-9943,-4483],[-755,-7921],[-19047,-1536],[-12302,1079],[7490,4081],[-3392,2990],[3575,6079],[6921,1158],[-5846,5012],[3093,3922],[-10039,1612],[-4358,6174],[29455,6114],[28882,451]],[[222217,944579],[6127,-3806],[3285,-8363],[-5693,-3064],[-5365,4899],[-2379,7367],[4025,2967]],[[264112,894541],[7971,-3554],[-9571,-8672],[-2441,8220],[4041,4006]],[[228608,959101],[-273,-7777],[-6764,-627],[-6408,2914],[5981,6338],[7464,-848]],[[244762,985987],[11696,-4383],[6626,-6705],[-4797,-1784],[-4929,-4070],[-10798,1134],[-11375,10063],[4177,4984],[9400,761]],[[238069,961671],[8306,-1335],[8621,-6734],[16799,1838],[6926,-2198],[423,-3281],[-6391,-2324],[-18373,101],[-9829,1723],[-621,6068],[-5861,6142]],[[241192,945818],[7823,-1684],[-4898,-6423],[-8542,-4186],[-1222,9611],[6839,2682]],[[229335,919786],[4871,-5225],[-4962,-1107],[-5811,2825],[5902,3507]],[[345948,815466],[-3432,-8509],[4633,-4346],[2968,786],[1185,-6971],[2437,-3932],[-1155,-5002],[-3067,1147],[-1897,2908],[-12516,2769],[3741,9661],[3515,9981],[3588,1508]],[[259474,927668],[4999,475],[-3117,5147],[2481,7772],[10035,1723],[3142,-5122],[14136,-1794],[2417,-3408],[7933,-2183],[11378,-8235],[-3192,-2634],[1319,-5915],[5036,-3411],[13682,-7547],[-5839,-8817],[-3510,291],[-1778,4837],[-3255,1563],[-4944,-1966],[3879,-4880],[4405,-2650],[2112,-7880],[-4068,-1517],[-772,-6524],[-7849,3093],[-6031,3672],[-6083,7957],[-2969,1421],[-6143,-2467],[-3811,4017],[2136,2961],[4162,-1302],[6299,1820],[-2425,3434],[6150,6426],[-3079,5833],[-6830,6061],[-8396,4954],[-9247,-1944],[-16006,2367],[-2632,1561],[-3269,8215],[2116,6454],[4288,3768],[7625,-162],[-4596,-4747],[1647,-6337],[-1536,-4380]],[[289789,912179],[1524,-4524],[-5216,-1557],[735,5555],[2957,526]],[[279063,942900],[9021,-3304],[-8919,-1873],[-102,5177]],[[362142,517214],[3470,-712],[-1526,-6508],[-4385,-1761],[-701,3156],[318,5574],[2824,251]],[[897718,449658],[1604,-13795],[1991,674],[2263,-4098],[384,-8429],[1944,-7082],[-260,-3674],[1247,-4643],[2604,-1725],[3725,-5251],[2623,-12393],[2945,-781],[220,-5081],[2943,-4281],[3506,-10159],[-133,-7088],[1274,-6027],[-1755,-18404],[-1315,-5786],[-1826,-2662],[-4494,-16896],[-729,-9765],[-4640,-1741],[-3904,-4798],[-2961,-21],[-3127,2634],[-3129,-3520],[-2574,2127],[-5514,2438],[-2341,4510],[203,3363],[-3740,9435],[-1172,4924],[-2366,3113],[-2241,-2307],[-2175,-5241],[-3926,13776],[-4102,3413],[-1508,-293],[-2975,2946],[-6104,-1192],[-4518,-3235],[-3896,-189],[-4975,-4796],[-1322,-4074],[-6237,56],[-4308,-853],[-4774,-5830],[-4495,-7],[-4190,4217],[1873,6125],[43,8633],[-1449,5107],[-605,7919],[-2205,7795],[-1621,8772],[-456,12229],[943,5862],[-206,4497],[3267,5196],[5133,6234],[1943,-388],[4717,4182],[4928,1903],[1708,3219],[2066,6556],[-214,3773],[2251,5052],[4462,1862],[-542,2048],[2214,6012],[4790,5592],[3601,-5806],[3498,-1045],[-223,3115],[2193,8269],[1401,3171],[4721,967],[864,4227],[5687,-2759],[5028,154],[1131,-2260],[-981,-3768],[-1853,-1731],[-1102,-9772],[3484,-5150],[6181,-5791],[2850,-4628],[2207,1660],[1079,4427],[1129,9158],[-425,7254],[570,7526],[1363,8900],[800,1379],[2007,-7186]],[[902896,283539],[3541,-2170],[5487,1246],[24,-6296],[-3966,-9061],[-2307,377],[-2153,5778],[-1728,9008],[1102,1118]],[[341609,153408],[-3451,-2250],[-10784,-9036],[749,-5557],[-5214,106],[-4696,-6040],[-545,-4635],[6065,-5251],[6774,-12243],[1757,-10604],[-1739,-8475],[-8094,-3032],[1559,-2575],[-23431,-7497],[-14976,708],[5009,-4865],[7041,-669],[-20275,-9666],[10144,-332],[3507,-8510],[13882,-311],[15247,-3832],[-3230,-3811],[8826,-1983],[3183,-4689],[21121,6572],[15626,1776],[13032,-2177],[6210,5602],[7394,2394],[37537,6452],[-13030,942],[-17472,4752],[6010,7771],[14283,6079],[12956,3476],[13268,1308],[10825,14077],[11386,3940],[4470,7983],[10977,1813],[-38,-3624],[14039,-43],[16692,3995],[9472,1048],[8828,-1687],[3411,3188],[14432,-1884],[3168,-2086],[10316,530],[11744,-579],[7768,3520],[7272,1725],[-149,5337],[4515,2142],[2866,-5386],[10096,-2125],[2790,5987],[8211,4861],[11937,3172],[4253,-1275],[1664,4911],[7326,5310],[4965,930],[5662,-1275],[9835,-8095],[12356,-135],[12858,-2196],[4595,-3312],[-979,-4421],[-6560,-6001],[5506,-909],[-3369,-5531],[-3181,-8975],[7396,3308],[4783,4325],[1745,5285],[5659,5551],[10765,3884],[2524,4559],[15997,6702],[9709,1879],[11370,1616],[5252,-1047],[11926,1280],[3090,-1042],[5846,4017],[6879,-213],[15311,-5304],[4010,4794],[6091,1594],[6142,-4384],[-102,-2691],[7958,-314],[2762,-1661],[18702,5798],[4654,-3956],[4711,54],[4763,4899],[12223,370],[12633,-3388],[9856,-931],[7020,-4307],[2284,-3741],[11863,-642],[5593,-2718],[6774,-966],[11843,-2866],[3481,-4582],[4550,72],[13596,-2913],[7202,-4726],[-1715,-8181],[-13248,-5635],[-6228,-6560],[637,-9096],[4630,-7469],[4942,-2360],[-15906,-4320],[1181,-12610],[20006,-11361],[33028,-5701],[0,-32538],[-999999,0],[0,2397],[0,1670],[0,4068],[0,4067],[0,4067],[0,4067],[0,4067],[0,4067],[0,4068],[23045,-1100],[24362,-2067],[-5604,6311],[15296,1513],[17874,6301],[-9774,7417],[23349,1507],[-6813,3152],[6663,3329],[-19537,4673],[-9140,6836],[797,3579],[9440,174],[14159,-3863],[10419,4198],[-1156,5583],[7802,3089],[19514,2444],[3298,2587],[15476,-1158],[5354,992],[35439,1522],[3259,-3035],[20314,-2086],[4770,1318],[17622,-430],[-7483,4056],[-3215,8633],[12213,-264],[5167,-1590],[16269,1909],[11985,-1329],[10548,-3735],[4837,5256],[9187,-5031],[23094,4104],[5537,5848],[-5223,15315],[3712,115],[1852,10862],[-2190,2387],[9598,11142],[6684,3309],[2133,3060],[9651,4881],[1025,-844]],[[374381,64461],[6270,-3839],[-1562,-4115],[-29541,-3911],[10620,8012],[3495,8251],[6265,1511],[8381,-2888],[-3928,-3021]],[[305413,119897],[4765,-9604],[263,-5566],[-2689,-4103],[-9479,6602],[3965,2325],[-1874,11776],[5049,-1430]]],"transform":{"scale":[0.00036000036000036,0.00017356394356394354],"translate":[-180,-89.998926]},"objects":{"ne_50m_admin_0_countries":{"type":"GeometryCollection","geometries":[{"arcs":[[[0],[6],[9]],[[1]],[[2]],[[3]],[[4]],[[5]],[[7]],[[8]],[[10]],[[11]],[[12]],[[13]],[[14]],[[15]],[[16]],[[17]],[[18]],[[19]],[[20]],[[21]],[[22]],[[23]],[[24]],[[25]],[[26]],[[27]],[[28]],[[29]],[[30]],[[31]],[[33]],[[34]],[[35]],[[36]],[[37]],[[38]],[[39]],[[40]],[[41]],[[42]],[[43]],[[44]],[[45]],[[46]],[[48]],[[49]],[[50]],[[51]],[[52]],[[53]],[[54]],[[55]],[[56]],[[57]],[[58]],[[59]],[[60]],[[61]],[[62]],[[63]],[[64]],[[65]],[[66]],[[67]],[[68]],[[69]],[[70]],[[71]],[[72]],[[73]],[[74]],[[75]],[[76]],[[77]],[[78]]],"type":"MultiPolygon"}]}}}